0 ZHEDA PIXING 1C
1 37167U 10047C   13282.02931012  .00000662  00000-0  98060-4 0   644
2 37167 097.8339 327.5571 0023419 305.6051 054.2997 14.78181796164328
0 ZHEDA PIXING 1C
1 37167U 10047C   13282.50315230  .00000658  00000-0  97552-4 0   656
2 37167 097.8339 328.0183 0023385 304.0418 055.8575 14.78182432164399
0 ZHEDA PIXING 1C
1 37167U 10047C   13282.70622752  .00000639  00000-0  94950-4 0   667
2 37167 097.8334 328.2155 0023420 303.2540 056.6403 14.78182461164427
0 ZHEDA PIXING 1C
1 37167U 10047C   13283.11237851  .00000588  00000-0  87845-4 0   674
2 37167 097.8330 328.6106 0023522 302.3308 057.5590 14.78182594164488
0 ZHEDA PIXING 1C
1 37167U 10047C   13283.38314550  .00000624  00000-0  92875-4 0   686
2 37167 097.8333 328.8744 0023523 301.4942 058.3979 14.78183402164520
0 ZHEDA PIXING 1C
1 37167U 10047C   13283.72160395  .00000620  00000-0  92212-4 0   692
2 37167 097.8333 329.2037 0023497 300.4363 059.4514 14.78183780164577
0 ZHEDA PIXING 1C
1 37167U 10047C   13284.06006287  .00000594  00000-0  88675-4 0   709
2 37167 097.8334 329.5329 0023508 299.3602 060.5262 14.78184035164623
0 ZHEDA PIXING 1C
1 37167U 10047C   13284.46621305  .00000583  00000-0  87250-4 0   714
2 37167 097.8331 329.9273 0023468 297.7947 062.0905 14.78184556164686
0 ZHEDA PIXING 1C
1 37167U 10047C   13285.48158696  .00000649  00000-0  96228-4 0   746
2 37167 097.8336 330.9156 0023360 294.4188 065.4597 14.78186493164838
0 ZHEDA PIXING 1C
1 37167U 10047C   13285.82004450  .00000682  00000-0  10076-3 0   756
2 37167 097.8332 331.2446 0023385 293.3284 066.5468 14.78187256164884
0 ZHEDA PIXING 1C
1 37167U 10047C   13286.09081064  .00000731  00000-0  10746-3 0   762
2 37167 097.8332 331.5082 0023413 292.3348 067.5432 14.78188226164920
0 ZHEDA PIXING 1C
1 37167U 10047C   13286.42926731  .00000766  00000-0  11238-3 0   774
2 37167 097.8332 331.8374 0023398 291.5258 068.3464 14.78189093164972
0 ZHEDA PIXING 1C
1 37167U 10047C   13286.83541590  .00000789  00000-0  11542-3 0   789
2 37167 097.8330 332.2324 0023371 289.7989 070.0710 14.78189911165032
0 ZHEDA PIXING 1C
1 37167U 10047C   13287.10618159  .00000802  00000-0  11724-3 0   795
2 37167 097.8328 332.4954 0023343 288.8103 071.0593 14.78190530165070
0 ZHEDA PIXING 1C
1 37167U 10047C   13287.51232971  .00000840  00000-0  12245-3 0   807
2 37167 097.8329 332.8910 0023286 287.5004 072.3682 14.78191627165137
0 ZHEDA PIXING 1C
1 37167U 10047C   13287.85078605  .00000859  00000-0  12504-3 0   815
2 37167 097.8328 333.2196 0023245 286.0215 073.8440 14.78192350165187
0 ZHEDA PIXING 1C
1 37167U 10047C   13288.12155141  .00000857  00000-0  12476-3 0   824
2 37167 097.8328 333.4828 0023235 285.1141 074.7503 14.78192846165223
0 ZHEDA PIXING 1C
1 37167U 10047C   13288.46000823  .00000864  00000-0  12572-3 0   833
2 37167 097.8329 333.8122 0023200 284.0146 075.8500 14.78193530165275
0 ZHEDA PIXING 1C
1 37167U 10047C   13288.73077322  .00000870  00000-0  12658-3 0   844
2 37167 097.8329 334.0756 0023207 283.0792 076.7832 14.78194069165315
0 ZHEDA PIXING 1C
1 37167U 10047C   13289.06923012  .00000855  00000-0  12457-3 0   858
2 37167 097.8329 334.4049 0023151 281.8552 078.0082 14.78194543165366
0 ZHEDA PIXING 1C
1 37167U 10047C   13289.33999487  .00000835  00000-0  12186-3 0   865
2 37167 097.8329 334.6681 0023137 280.7848 079.0762 14.78194900165408
0 ZHEDA PIXING 1C
1 37167U 10047C   13289.67845060  .00000880  00000-0  12796-3 0   877
2 37167 097.8327 334.9970 0023092 279.5687 080.2922 14.78195945165454
0 ZHEDA PIXING 1C
1 37167U 10047C   13289.94921563  .00000851  00000-0  12394-3 0   883
2 37167 097.8326 335.2604 0023025 278.6744 081.1852 14.78196169165496
0 ZHEDA PIXING 1C
1 37167U 10047C   13290.35536298  .00000854  00000-0  12437-3 0   899
2 37167 097.8327 335.6556 0022982 277.1570 082.7043 14.78196982165558
0 ZHEDA PIXING 1C
1 37167U 10047C   13290.62612734  .00000876  00000-0  12745-3 0   907
2 37167 097.8328 335.9189 0022943 276.3327 083.5271 14.78197647165597
0 ZHEDA PIXING 1C
1 37167U 10047C   13291.09996421  .00000967  00000-0  13998-3 0   910
2 37167 097.8327 336.3795 0023036 274.8445 085.0156 14.78199484165660
0 ZHEDA PIXING 1C
1 37167U 10047C   13291.43841917  .00000992  00000-0  14336-3 0   923
2 37167 097.8331 336.7094 0022988 273.7395 086.1200 14.78200395165710
0 ZHEDA PIXING 1C
1 37167U 10047C   13291.77687403  .00001000  00000-0  14445-3 0   931
2 37167 097.8331 337.0386 0022998 272.6667 087.1914 14.78201175165764
0 ZHEDA PIXING 1C
1 37167U 10047C   13292.04763802  .00001011  00000-0  14598-3 0   942
2 37167 097.8331 337.3019 0022995 271.4945 088.3654 14.78201860165803
0 ZHEDA PIXING 1C
1 37167U 10047C   13292.45378316  .00001023  00000-0  14753-3 0   956
2 37167 097.8327 337.6966 0023022 270.1643 089.6934 14.78202883165862
0 ZHEDA PIXING 1C
1 37167U 10047C   13292.79223758  .00001031  00000-0  14863-3 0   964
2 37167 097.8327 338.0260 0023024 269.1790 090.6771 14.78203637165912
0 ZHEDA PIXING 1C
1 37167U 10047C   13293.06300151  .00001020  00000-0  14720-3 0   979
2 37167 097.8326 338.2894 0023015 268.2186 091.6393 14.78204140165950
0 ZHEDA PIXING 1C
1 37167U 10047C   13293.46914660  .00001017  00000-0  14677-3 0   987
2 37167 097.8325 338.6842 0023009 266.8172 093.0405 14.78204997166016
0 ZHEDA PIXING 1C
1 37167U 10047C   13293.80760081  .00001030  00000-0  14853-3 0   993
2 37167 097.8324 339.0130 0023002 265.7982 094.0591 14.78205760166061
0 ZHEDA PIXING 1C
1 37167U 10047C   13294.07836453  .00001015  00000-0  14655-3 0  1006
2 37167 097.8323 339.2762 0022990 264.9101 094.9492 14.78206213166100
0 ZHEDA PIXING 1C
1 37167U 10047C   13294.41681833  .00001003  00000-0  14490-3 0  1019
2 37167 097.8322 339.6050 0022996 263.7658 096.0928 14.78206843166154
0 ZHEDA PIXING 1C
1 37167U 10047C   13294.82296292  .00001005  00000-0  14507-3 0  1027
2 37167 097.8323 340.0001 0023023 262.4275 097.4307 14.78207630166218
0 ZHEDA PIXING 1C
1 37167U 10047C   13295.16141648  .00001023  00000-0  14758-3 0  1038
2 37167 097.8322 340.3291 0023043 261.2300 098.6308 14.78208581166264
0 ZHEDA PIXING 1C
1 37167U 10047C   13295.70294152  .00001028  00000-0  14827-3 0  1040
2 37167 097.8316 340.8549 0023092 259.4411 100.4187 14.78209776166347
